HST                     
1 20580U 90037B   26153.34296606  .00005773  00000+0  18209-3 0  9991
2 20580  28.4711 182.0162 0001700 354.7953   5.2625 15.30586461786295
POLAR                   
1 23802U 96013A   26155.71333008  .00000122  00000+0  00000+0 0  9991
2 23802  79.8402 227.1988 6458114 209.5112  89.0597  1.29846118144695
SWAS                    
1 25560U 98071A   26155.69094919  .00004978  00000+0  31575-3 0  9990
2 25560  69.8966 259.7415 0008736 271.7892  88.2272 15.09536542495385
CXO                     
1 25867U 99040B   26158.79821798  .00000708  00000+0  00000+0 0  9996
2 25867  55.9928 116.9568 7854200 310.2595   0.2905  0.37800379 17286
XMM-NEWTON              
1 25989U 99066A   26157.37875651  .00000096  00000+0  00000+0 0  9999
2 25989  64.5482 283.1267 4678331  65.0797   0.1118  0.50125302 22956
TERRA                   
1 25994U 99068A   26155.90742075  .00000475  00000+0  10568-3 0  9992
2 25994  97.9461 205.9400 0000819 258.4434 222.1880 14.61093250407819
CLUSTER II-FM7 (SAMBA)  
1 26410U 00041A   26156.98399886  .00004453  00000+0  00000+0 0  9992
2 26410 149.8917  48.5803 9040965 265.6480   0.0292  0.44829937 20254
CLUSTER II-FM8 (TANGO)  
1 26464U 00045B   26154.93096890  .00009075  00000+0  00000+0 0  9992
2 26464 150.1347  49.2777 9042973 266.1813   3.2525  0.44411373 20255
ODIN                    
1 26702U 01007A   26155.63180173  .00152340  00000+0  11616-2 0  9994
2 26702  97.3850 195.8037 0006273 158.8714 201.2809 15.71743292387423
TIMED                   
1 26998U 01055B   26154.62706029  .00001612  00000+0  15003-3 0  9996
2 26998  74.0681 262.3202 0000349  13.3633 346.7560 14.95260030328794
CORIOLIS                
1 27640U 03001A   26155.65438943  .00000117  00000+0  75661-4 0  9991
2 27640  98.7126 162.7305 0012869 247.3338 112.6478 14.19941394212441
SORCE                   
1 27651U 03004A   26154.92285900  .00003252  00000+0  24356-3 0  9995
2 27651  39.9921 337.3518 0018429 313.8415  46.0856 15.03637583269901
MOST                    
1 27843U 03031D   26154.97668809  .00000075  00000+0  54461-4 0  9997
2 27843  98.7043 162.8868 0008771 293.5336  66.4920 14.21319662188830
SCISAT 1                
1 27858U 03036A   26155.25989080  .00000674  00000+0  90715-4 0  9994
2 27858  73.9291 197.0273 0008713 265.5728  94.4453 14.81434457229537
SWIFT                   
1 28485U 04047A   26151.76835454  .00063707  00000+0  56852-3 0  9990
2 28485  20.5544 311.3972 0003289  74.7681 285.3128 15.66645040184289
HINODE (SOLAR-B)        
1 29479U 06041A   26155.78531375  .00000914  00000+0  16550-3 0  9993
2 29479  98.0549 172.1206 0016650 331.9370  28.0936 14.68605225 53051
SHIJIAN-6 02A (SJ-6 02A)
1 29505U 06046A   26155.95365867  .00005681  00000+0  29267-3 0  9993
2 29505  97.6365 196.9289 0003566 152.4969 207.6453 15.16793069 70415
SHIJIAN-6 02B (SJ-6 02B)
1 29506U 06046B   26155.94985590  .00001574  00000+0  12669-3 0  9999
2 29506  97.7156 185.0837 0014347  96.1004 264.1855 15.01343912 68903
FGRST (GLAST)           
1 33053U 08029A   26154.80528131  .00004081  00000+0  15062-3 0  9998
2 33053  25.5832 297.3955 0008323 165.4583 194.6195 15.23873209993791
SDO                     
1 36395U 10005A   26155.32544691 -.00000070  00000+0  00000+0 0  9991
2 36395  34.6250  86.5380 0001331  46.7195 134.7054  1.00271400 59933
CRYOSAT 2               
1 36508U 10013A   26155.88261905  .00000157  00000+0  38201-4 0  9995
2 36508  92.0347 274.3116 0002267  85.3741 274.7725 14.51895727856291
X-SAT                   
1 37389U 11015C   26155.93957931 -.00000029  00000+0  51428-5 0  9999
2 37389  98.3507 133.5471 0014776  23.6532 336.5325 14.25201736785934
GCOM-W1 (SHIZUKU)       
1 38337U 12025A   26155.74077312  .00000589  00000+0  14072-3 0  9992
2 38337  98.2019  96.4852 0001840  85.0623 334.9246 14.57112706747223
NUSTAR                  
1 38358U 12031A   26156.00002315  .00007135  00000+0  38824-3 0  9998
2 38358   6.0246 125.5400 0008887 285.8231  27.2671 15.08680923  1305
NEOSSAT                 
1 39089U 13009D   26155.10843347  .00000166  00000+0  72145-4 0  9996
2 39089  98.4175 335.4525 0009833 287.6281  72.3831 14.35821814694863
BRITE-AUSTRIA           
1 39091U 13009F   26155.74043161  .00000204  00000+0  84090-4 0  9990
2 39091  98.3992 335.4846 0008968 278.5862  81.4309 14.36537037695268
IRIS                    
1 39197U 13033A   26155.03328219  .00001148  00000+0  13761-3 0  9990
2 39197  97.9336 354.3515 0024561   5.6073 354.5412 14.85857262698424
HISAKI (SPRINT-A)       
1 39253U 13049A   26155.82907082  .00000144  00000+0  10462-3 0  9998
2 39253  29.7212 282.8417 0136929 276.7092  81.7914 13.55543318629748
CASSIOPE                
1 39265U 13055A   26155.88932593  .00039655 -60914-6  43883-3 0  9999
2 39265  80.9143  81.6408 0296871 103.6552 259.7922 15.24079432665790
STSAT-3                 
1 39422U 13066G   26155.92724912  .00004448  00000+0  33749-3 0  9999
2 39422  97.6211 126.0147 0010823  77.0432 283.2001 15.02678822682368
SWARM B                 
1 39451U 13067A   26155.89121690  .00003867  00000+0  13838-3 0  9993
2 39451  87.7440 346.0532 0003411  93.3195 266.8444 15.28474259681361
